NORAD_CAT_ID,OBJECT_NAME,OBJECT_TYPE,EPOCH,MEAN_MOTION,ECCENTRICITY,INCLINATION,RA_OF_ASC_NODE,ARG_OF_PERICENTER,MEAN_ANOMALY,BSTAR,MEAN_MOTION_DOT,MEAN_MOTION_DDOT,TLE_LINE0,TLE_LINE1,TLE_LINE2,SEMIMAJOR_AXIS,PERIOD,APOGEE,PERIGEE,DECAYED
51715.0,STARLINK-3533,PAYLOAD,2022-02-25 16:00:01,15.76946161,0.0001190999999999,53.2178,119.4626,63.08,78.0425,-0.0053139,-0.00800519,0.0,0 STARLINK-3533,1 51715U 22016B   22056.66668981 -.00800519  00000-0 -53139-2 0  9993,2 51715  53.2178 119.4626 0001191  63.0800  78.0425 15.76946161  1929,6717.236,91.316,339.901,338.301,0.0
51715.0,STARLINK-3533,PAYLOAD,2022-02-25 22:00:00,15.76528421,0.0001126,53.2176,118.2167,62.9666,57.9686,-0.0059608,-0.00873635,0.0,0 STARLINK-3533,1 51715U 22016B   22056.91667824 -.00873635  00000-0 -59608-2 0  9992,2 51715  53.2176 118.2167 0001126  62.9666  57.9686 15.76528421  1368,6718.422,91.34,341.0440000000001,339.531,0.0
51715.0,STARLINK-3533,PAYLOAD,2022-02-26 06:00:00,15.75899294,0.0001232,53.2178,116.5599,70.4931,142.9849,-0.0061287,-0.00873517,0.0,0 STARLINK-3533,1 51715U 22016B   22057.25001157 -.00873517  00000-0 -61287-2 0  9996,2 51715  53.2178 116.5599 0001232  70.4931 142.9849 15.75899294  2014,6720.21,91.376,342.903,341.247,0.0
51715.0,STARLINK-3533,PAYLOAD,2022-02-26 14:00:01,15.75269151,0.0001143,53.2175,114.9064,64.5041,240.7599,-0.0062929,-0.00872379,0.0,0 STARLINK-3533,1 51715U 22016B   22057.58334491 -.00872379  00000-0 -62929-2 0  9991,2 51715  53.2175 114.9064 0001143  64.5041 240.7599 15.75269151  1467,6722.002,91.413,344.636,343.099,0.0
51715.0,STARLINK-3533,PAYLOAD,2022-02-26 22:00:00,15.74640367,0.0001083,53.2174,113.2506,55.6,340.6957,-0.0064735,-0.00872892,0.0,0 STARLINK-3533,1 51715U 22016B   22057.91667824 -.00872892  00000-0 -64735-2 0  9994,2 51715  53.2174 113.2506 0001083  55.6000 340.6957 15.74640367  1524,6723.792,91.449,346.385,344.92900000000014,0.0
51715.0,STARLINK-3533,PAYLOAD,2022-02-27 06:00:00,15.73998516,0.0001403,53.2175,111.5985,45.6005,80.9722,-0.0064307,-0.00846027,0.0,0 STARLINK-3533,1 51715U 22016B   22058.25001157 -.00846027  00000-0 -64307-2 0  9999,2 51715  53.2175 111.5985 0001403  45.6005  80.9722 15.73998516  2163,6725.62,91.487,348.42800000000005,346.541,0.0
51715.0,STARLINK-3533,PAYLOAD,2022-02-27 14:00:01,15.73233731,0.000136,53.2176,109.9494,53.643,162.4607,-0.00033405,-0.00047306,0.0,0 STARLINK-3533,1 51715U 22016B   22058.58334491 -.00047306  00000-0 -33405-3 0  9994,2 51715  53.2176 109.9494 0001360  53.6430 162.4607 15.73233731  2229,6727.799,91.531,350.579,348.749,0.0
51715.0,STARLINK-3533,PAYLOAD,2022-02-27 22:00:00,15.73071504,0.000138,53.2182,108.2987,47.3186,257.8002,0.0015011,0.00214329,0.0,0 STARLINK-3533,1 51715U 22016B   22058.91667824  .00214329  00000-0  15011-2 0  9991,2 51715  53.2182 108.2987 0001380  47.3186 257.8002 15.73071504  1679,6728.262,91.541,351.055,349.1980000000001,0.0
51715.0,STARLINK-3533,PAYLOAD,2022-02-28 06:00:00,15.73237486,0.0001286999999999,53.2205,106.6541,57.348,336.8143,5.7683e-05,7.495e-05,0.0,0 STARLINK-3533,1 51715U 22016B   22059.25001157  .00007495  00000-0  57683-4 0  9997,2 51715  53.2205 106.6541 0001287  57.3480 336.8143 15.73237486  2327,6727.788000000001,91.531,350.519,348.787,0.0
51715.0,STARLINK-3533,PAYLOAD,2022-02-28 14:00:01,15.73228791,0.0001359,53.2199,105.0063,47.6888,75.4367,-0.00017005,-0.00024446,0.0,0 STARLINK-3533,1 51715U 22016B   22059.58334491 -.00024446  00000-0 -17005-3 0  9993,2 51715  53.2199 105.0063 0001359  47.6888  75.4367 15.73228791  2373,6727.813,91.532,350.592,348.764,0.0
51715.0,STARLINK-3533,PAYLOAD,2022-02-28 22:00:00,15.73207661,0.0001161,53.2198,103.3547,54.8736,157.2038,-8.5533e-05,-0.00012609,0.0,0 STARLINK-3533,1 51715U 22016B   22059.91667824 -.00012609  00000-0 -85533-4 0  9999,2 51715  53.2198 103.3547 0001161  54.8736 157.2038 15.73207661  1830,6727.873000000001,91.533,350.519,348.957,0.0
51715.0,STARLINK-3533,PAYLOAD,2022-03-01 14:00:01,15.731656699999998,0.0001543,53.2198,100.0581,50.2181,339.6983,0.00058822,0.00082627,0.0,0 STARLINK-3533,1 51715U 22016B   22060.58334491  .00082627  00000-0  58822-3 0  9990,2 51715  53.2198 100.0581 0001543  50.2181 339.6983 15.73165670  1940,6727.993,91.535,350.896,348.82,0.0
51715.0,STARLINK-3533,PAYLOAD,2022-03-01 22:00:01,15.73218255,0.0001307,53.2198,98.4066,54.9875,63.9189,-0.00018935,-0.00027129,0.0,0 STARLINK-3533,1 51715U 22016B   22060.91668981 -.00027129  00000-0 -18935-3 0  9990,2 51715  53.2198  98.4066 0001307  54.9875  63.9189 15.73218255  2581,6727.843000000003,91.532,350.587,348.829,0.0
51715.0,STARLINK-3533,PAYLOAD,2022-03-02 14:00:01,15.73209537,0.0001506,53.2189,95.1097,46.0579,250.6484,0.0001891,0.00026012,0.0,0 STARLINK-3533,1 51715U 22016B   22061.58334491  .00026012  00000-0  18910-3 0  9991,2 51715  53.2189  95.1097 0001506  46.0579 250.6484 15.73209537  2691,6727.868,91.533,350.746,348.72,0.0
51715.0,STARLINK-3533,PAYLOAD,2022-03-02 22:00:00,15.7316226,0.0001439,53.2189,93.458,60.0413,325.6269,0.00030982,0.00043014,0.0,0 STARLINK-3533,1 51715U 22016B   22061.91667824  .00043014  00000-0  30982-3 0  9991,2 51715  53.2189  93.4580 0001439  60.0413 325.6269 15.73162260  2748,6728.003000000002,91.535,350.836,348.9,0.0
51715.0,STARLINK-3533,PAYLOAD,2022-03-03 14:00:01,15.73169563,0.0001548,53.219,90.1612,48.1206,155.3864,0.00018241,0.00025023,0.0,0 STARLINK-3533,1 51715U 22016B   22062.58334491  .00025023  00000-0  18241-3 0  9990,2 51715  53.2190  90.1612 0001548  48.1206 155.3864 15.73169563  2852,6727.982,91.535,350.88800000000015,348.805,0.0
51715.0,STARLINK-3533,PAYLOAD,2022-03-03 18:00:00,15.73271699,0.0001567,53.2192,89.3352,53.7852,14.1873,-0.00066795,-0.00093615,0.0,0 STARLINK-3533,1 51715U 22016B   22062.75001157 -.00093615  00000-0 -66795-3 0  9990,2 51715  53.2192  89.3352 0001567  53.7852  14.1873 15.73271699  2873,6727.691,91.529,350.61,348.50199999999984,0.0
51715.0,STARLINK-3533,PAYLOAD,2022-03-03 22:00:00,15.73200369,0.0001475,53.2192,88.5092,58.8668,233.6151,0.00013503,0.00018372,0.0,0 STARLINK-3533,1 51715U 22016B   22062.91667824  .00018372  00000-0  13503-3 0  9991,2 51715  53.2192  88.5092 0001475  58.8668 233.6151 15.73200369  2316,6727.894,91.533,350.751,348.767,0.0
51715.0,STARLINK-3533,PAYLOAD,2022-03-04 06:00:02,15.73239491,0.0001517,53.2191,86.8611,52.5644,328.9202,-7.2268e-05,-0.00010767,0.0,0 STARLINK-3533,1 51715U 22016B   22063.25002315 -.00010767  00000-0 -72268-4 0  9993,2 51715  53.2191  86.8611 0001517  52.5644 328.9202 15.73239491  2958,6727.783,91.531,350.668,348.62699999999984,0.0
51715.0,STARLINK-3533,PAYLOAD,2022-03-04 14:00:01,15.73241317,0.000153,53.2185,85.2122,46.265,64.2018,-0.00020615,-0.00029503,0.0,0 STARLINK-3533,1 51715U 22016B   22063.58335648 -.00029503  00000-0 -20615-3 0  9993,2 51715  53.2185  85.2122 0001530  46.2650  64.2018 15.73241317  2419,6727.776999999999,91.531,350.672,348.61300000000006,0.0
51715.0,STARLINK-3533,PAYLOAD,2022-03-04 22:00:00,15.73219529,0.0001293,53.2185,83.5607,55.4274,143.9411,0.00014529,0.00019835,0.0,0 STARLINK-3533,1 51715U 22016B   22063.91667824  .00019835  00000-0  14529-3 0  9996,2 51715  53.2185  83.5607 0001293  55.4274 143.9411 15.73219529  2465,6727.839,91.532,350.574,348.835,0.0
51715.0,STARLINK-3533,PAYLOAD,2022-03-05 06:00:00,15.732456699999998,0.0001458,53.2189,81.9125,53.3962,234.93400000000003,-0.00073622,-0.00102891,0.0,0 STARLINK-3533,1 51715U 22016B   22064.25001157 -.00102891  00000-0 -73622-3 0  9991,2 51715  53.2189  81.9125 0001458  53.3962 234.9340 15.73245670  2525,6727.765,91.531,350.611,348.649,0.0
51715.0,STARLINK-3533,PAYLOAD,2022-03-05 14:00:01,15.73172066,0.0001443,53.2189,80.2637,43.9736,333.3154,0.00037727,0.00052596,0.0,0 STARLINK-3533,1 51715U 22016B   22064.58334491  .00052596  00000-0  37727-3 0  9997,2 51715  53.2189  80.2637 0001443  43.9736 333.3154 15.73172066  2573,6727.975,91.535,350.811,348.869,0.0
51715.0,STARLINK-3533,PAYLOAD,2022-03-05 16:00:00,15.73211351,0.0001367,53.2191,79.8506,45.8475,83.6563,-0.00020982,-0.00029976,0.0,0 STARLINK-3533,1 51715U 22016B   22064.66667824 -.00029976  00000-0 -20982-3 0  9998,2 51715  53.2191  79.8506 0001367  45.8475  83.6563 15.73211351  3178,6727.863,91.533,350.648,348.80800000000005,0.0
51715.0,STARLINK-3533,PAYLOAD,2022-03-05 22:00:01,15.73175132,0.0001133,53.2192,78.6122,47.5058,58.7716,8.8451e-05,0.00011798,0.0,0 STARLINK-3533,1 51715U 22016B   22064.91668981  .00011798  00000-0  88451-4 0  9998,2 51715  53.2192  78.6122 0001133  47.5058  58.7716 15.73175132  2625,6727.965999999999,91.535,350.593,349.069,0.0
51715.0,STARLINK-3533,PAYLOAD,2022-03-06 06:00:00,15.73217451,0.0001214,53.2192,76.9643,38.2959,156.8407,-0.00047905,-0.00067364,0.0,0 STARLINK-3533,1 51715U 22016B   22065.25001157 -.00067364  00000-0 -47905-3 0  9992,2 51715  53.2192  76.9643 0001214  38.2959 156.8407 15.73217451  3271,6727.845,91.532,350.527,348.894,0.0
51715.0,STARLINK-3533,PAYLOAD,2022-03-06 14:00:01,15.73183467,0.00012,53.2186,75.3152,31.5519,252.5024,0.00044664,0.00062485,0.0,0 STARLINK-3533,1 51715U 22016B   22065.58334491  .00062485  00000-0  44664-3 0  9994,2 51715  53.2186  75.3152 0001200  31.5519 252.5024 15.73183467  3329,6727.941999999999,91.534,350.615,349.0,0.0
51715.0,STARLINK-3533,PAYLOAD,2022-03-06 22:00:00,15.73227263,0.0001043,53.2188,73.664,43.8157,329.1517,-9.866e-05,-0.00014458,0.0,0 STARLINK-3533,1 51715U 22016B   22065.91667824 -.00014458  00000-0 -98660-4 0  9995,2 51715  53.2188  73.6640 0001043  43.8157 329.1517 15.73227263  3379,6727.816999999999,91.532,350.384,348.981,0.0
51715.0,STARLINK-3533,PAYLOAD,2022-03-07 06:00:00,15.73199182,0.0001296,53.2192,72.0164,44.4262,57.488,-0.00078816,-0.00109796,0.0,0 STARLINK-3533,1 51715U 22016B   22066.25001157 -.00109796  00000-0 -78816-3 0  9994,2 51715  53.2192  72.0164 0001296  44.4262  57.4880 15.73199182  3420,6727.898,91.533,350.634,348.891,0.0
